[{"OBJECT_NAME":"NUSAT-44 (MARIA MITCHELL)","OBJECT_ID":"2024-043AA","EPOCH":"2026-03-09T22:12:18.524160","MEAN_MOTION":15.29764305,"ECCENTRICITY":0.0007331,"INCLINATION":97.5299,"RA_OF_ASC_NODE":207.7691,"ARG_OF_PERICENTER":214.9017,"MEAN_ANOMALY":145.1743,"EPHEMERIS_TYPE":0,"CLASSIFICATION_TYPE":"U","NORAD_CAT_ID":59122,"ELEMENT_SET_NO":999,"REV_AT_EPOCH":11209,"BSTAR":0.00061063193,"MEAN_MOTION_DOT":0.00017562,"MEAN_MOTION_DDOT":0},{"OBJECT_NAME":"STARLINK-35690","OBJECT_ID":"2025-257D","EPOCH":"2026-03-09T16:08:37.824000","MEAN_MOTION":15.30193819,"ECCENTRICITY":0.00010438,"INCLINATION":53.1601,"RA_OF_ASC_NODE":216.9097,"ARG_OF_PERICENTER":74.2963,"MEAN_ANOMALY":285.8153,"EPHEMERIS_TYPE":0,"CLASSIFICATION_TYPE":"U","NORAD_CAT_ID":66383,"ELEMENT_SET_NO":999,"REV_AT_EPOCH":1973,"BSTAR":0.0009368491,"MEAN_MOTION_DOT":0.00027485,"MEAN_MOTION_DDOT":0}]
